FENGYUN 3C              
1 39260U 13052A   23166.33506397  .00000100  00000+0  71528-4 0  9992
2 39260  98.4278 180.5598 0010109 313.1561  46.8769 14.16044267503268
CASSIOPE                
1 39265U 13055A   23165.85216053  .00010323  00000+0  25265-3 0  9997
2 39265  80.9611 239.6885 0569164 314.9848  40.6510 14.51790980504640
ZACUBE-1 (TSHEPISOSAT)  
1 39417U 13066B   23166.41249469  .00002626  00000+0  30669-3 0  9999
2 39417  97.6846 128.1405 0053156 294.2055  65.3610 14.84988446516935
CINEMA-3 (KHUSAT-2)     
1 39426U 13066L   23166.32478289  .00001237  00000+0  19169-3 0  9992
2 39426  97.8286  96.4166 0101553 152.0710 208.6000 14.71510929512877
TRITON-1                
1 39427U 13066M   23166.33392990  .00001665  00000+0  25578-3 0  9994
2 39427  97.8358  92.2680 0107908 182.7994 177.2623 14.70994491512272
DELFI-N3XT              
1 39428U 13066N   23166.06846053  .00002704  00000+0  39372-3 0  9991
2 39428  97.8338  90.9796 0110090 195.3718 164.4138 14.72598460512002
GOMX-1                  
1 39430U 13066Q   23166.40789640  .00002185  00000+0  38529-3 0  9996
2 39430  97.7809  57.6517 0145051 339.6687  19.8776 14.61838298509271
BRITE-PL1 (LEM)         
1 39431U 13066R   23165.77507911  .00001066  00000+0  23324-3 0  9999
2 39431  97.6792 351.8335 0199712 184.7709 175.1589 14.47960711504987
ICUBE-1                 
1 39432U 13066S   23166.01488179  .00003887  00000+0  35270-3 0  9998
2 39432  97.4836 157.0088 0030500 127.6474 232.7522 14.95506504520029
HUMSAT-D                
1 39433U 13066T   23165.42014590  .00008030  00000+0  65656-3 0  9991
2 39433  97.4527 164.4375 0029917  99.1581 261.3029 14.99255615519341
VELOX-PII               
1 39438U 13066Y   23165.68198083  .00003137  00000+0  39639-3 0  9999
2 39438  97.7412 119.1599 0066668 357.8511   2.2405 14.81016851514576
FIRST-MOVE              
1 39439U 13066Z   23165.73703135  .00006049  00000+0  62039-3 0  9991
2 39439  97.6795 131.3666 0054316 286.0790  73.4451 14.89693621516959
CUBEBUG-2 (LO-74)       
1 39440U 13066AA  23166.41060451  .00003610  00000+0  46744-3 0  9992
2 39440  97.7720 115.2193 0076446  34.1958 326.4143 14.79413543515097
NEE-02 KRYSAOR          
1 39441U 13066AB  23166.38425641  .00002446  00000+0  33297-3 0  9990
2 39441  97.7833 112.0248 0079562  50.6305 310.1919 14.77439019514746
FUNCUBE-1 (AO-73)       
1 39444U 13066AE  23166.37735992  .00003903  00000+0  43488-3 0  9997
2 39444  97.6708 130.6510 0051205 279.1969  80.3457 14.86688822515961
HINCUBE                 
1 39445U 13066AF  23166.41557283  .00003083  00000+0  34702-3 0  9996
2 39445  97.6722 130.4534 0051380 281.8586  77.6871 14.86423803515494
UWE-3                   
1 39446U 13066AG  23165.86493144  .00003396  00000+0  41857-3 0  9996
2 39446  97.7343 120.8561 0065163 348.2584  11.7107 14.82066317514677
AIST-1 (RS-41)          
1 39492U 13078C   23166.35498353  .00001401  00000+0  14356-3 0  9991
2 39492  82.4188 249.1025 0018541 347.1057  12.9685 14.89688562513770
SPROUT                  
1 39770U 14029E   23166.36182749  .00015435  00000+0  11746-2 0  9998
2 39770  97.9876 293.5403 0005805 307.8318  52.2380 15.02189343491884
UNISAT-6                
1 40012U 14033C   23165.89049372  .00002295  00000+0  32562-3 0  9995
2 40012  97.6723 340.0562 0056881  64.5614 296.1468 14.76791765483438
BUGSAT-1 (TITA)         
1 40014U 14033E   23166.08968041  .00002530  00000+0  20971-3 0  9995
2 40014  98.1389 184.9657 0028473 279.4520  80.3483 14.99522505490418
DUCHIFAT-1              
1 40021U 14033M   23166.41743278  .00005493  00000+0  47073-3 0  9996
2 40021  98.0563 130.3164 0009780 281.8351  78.1773 14.97941381488921
NANOSATC-BR1            
1 40024U 14033Q   23165.44403830  .00004548  00000+0  41155-3 0  9993
2 40024  98.0280 120.4991 0009010 297.4068  62.6235 14.95909775488528
QB50P1                  
1 40025U 14033R   23166.39270347  .00004221  00000+0  40206-3 0  9998
2 40025  97.9964 113.1189 0009665 305.7933  54.2387 14.93914284488382
DTUSAT-2                
1 40030U 14033W   23166.33807395  .00003171  00000+0  31000-3 0  9992
2 40030  97.9677 106.8516 0009277 303.5470  56.4862 14.93069307488236
QB50P2                  
1 40032U 14033Y   23166.11279991  .00004310  00000+0  41924-3 0  9997
2 40032  97.9674 106.6410 0009187 305.3337  54.7023 14.93070183488186
POLYITAN-1              
1 40042U 14033AJ  23165.65965526  .00005369  00000+0  49932-3 0  9994
2 40042  98.0074 114.2494 0011305 298.1613  61.8464 14.94727789487663
TIGRISAT                
1 40043U 14033AK  23165.94856885  .00001806  00000+0  25887-3 0  9999
2 40043  97.6649 341.0932 0058954  61.7946 298.9200 14.76510485483387
AISAT                   
1 40054U 14034B   23166.09120910  .00004436  00000+0  54822-3 0  9995
2 40054  98.3669 358.1791 0010351 227.9562 132.0770 14.83317228483153
CANX-4                  
1 40055U 14034C   23166.39434447  .00001144  00000+0  17206-3 0  9990
2 40055  98.3900 341.2906 0012613 284.6368  75.3442 14.76526816482285
CANX-5                  
1 40056U 14034D   23165.72349036  .00001205  00000+0  18070-3 0  9994
2 40056  98.3903 340.5808 0012622 287.2194  72.7633 14.76528801472961
VELOX-I                 
1 40057U 14034E   23166.44636636  .00003055  00000+0  39299-3 0  9991
2 40057  98.3717 359.4060 0008826 244.8068 115.2229 14.81904267483173
METEOR-M 2              
1 40069U 14037A   23166.43971397  .00000091  00000+0  61368-4 0  9992
2 40069  98.4229 172.4964 0005615   1.0348 359.0840 14.20784303463409
DX1                     
1 40071U 14037C   23166.36932269  .00001285  00000+0  16534-3 0  9992
2 40071  98.3611  57.3148 0007050 224.2742 135.7907 14.82980932483097
UKUBE-1                 
1 40074U 14037F   23166.30147057  .00003446  00000+0  37932-3 0  9998
2 40074  98.3462  70.6899 0003842 170.3999 189.7290 14.88292623483975
FIREBIRD 3              
1 40377U 15003B   23165.59201070  .00155185  00000+0  10518-2 0  9992
2 40377  99.0736 123.8791 0039193 205.3858 154.5476 15.73445460464234
FIREBIRD 4              
1 40378U 15003C   23165.59700081  .00152244  00000+0  10385-2 0  9994
2 40378  99.0756 124.2096 0039494 204.7521 155.1844 15.73288889464252
GRIFEX                  
1 40379U 15003D   23166.35236607  .00027876  00000+0  60745-3 0  9996
2 40379  99.0780 102.6643 0078805 277.3510  81.8780 15.40931544463105
CP10 (EXOCUBE)          
1 40380U 15003E   23166.36410399  .00020978  00000+0  58232-3 0  9995
2 40380  99.0840  92.5052 0095225 312.0862  47.2304 15.32432715462459
DEORBITSAIL             
1 40719U 15032E   23166.12520834  .00003964  00000+0  51114-3 0  9991
2 40719  97.7358  37.0060 0013104 264.9256  95.0461 14.81511885427517
XW-2C                   
1 40906U 15049H   23166.38633779  .00009610  00000+0  37132-3 0  9996
2 40906  97.4924 173.5169 0012553 159.6343 200.5399 15.26389295428120
XW-2D                   
1 40907U 15049J   23166.27652872  .00011671  00000+0  42476-3 0  9997
2 40907  97.4906 173.9337 0011925 152.8518 207.3347 15.28322011428193
LILACSAT-2              
1 40908U 15049K   23166.37990388  .00004721  00000+0  22383-3 0  9999
2 40908  97.5239 169.4413 0013689 188.8060 171.2936 15.19702139427521
XW-2E                   
1 40909U 15049L   23166.30063066  .00024402  00000+0  64628-3 0  9993
2 40909  97.4517 180.1787 0010966 124.3672 235.8612 15.38294283428855
XW-2F                   
1 40910U 15049M   23166.29740627  .00023820  00000+0  64421-3 0  9992
2 40910  97.4610 179.4129 0011726 126.7212 233.5111 15.37643871428593
XW-2B                   
1 40911U 15049N   23166.27224927  .00011607  00000+0  42533-3 0  9991
2 40911  97.4885 174.3677 0011838 154.3492 205.8337 15.28098708428079
KAITUO 1B               
1 40912U 15049P   23166.39139753  .00035120  00000+0  77406-3 0  9990
2 40912  97.4161 184.1363 0011016  94.6309 265.6197 15.43782555429334
LAPAN-A2                
1 40931U 15052B   23165.39054716  .00001153  00000+0  70050-4 0  9997
2 40931   5.9995 106.4578 0013601 256.0970 103.7644 14.77237448416820
LQSAT                   
1 40958U 15057A   23166.41374707  .00000668  00000+0  10895-3 0  9990
2 40958  97.7016 200.4579 0016735 226.4434 133.5386 14.73917281413428
ATHENOXAT 1             
1 41168U 15077C   23166.44085288  .00143116  00000+0  16906-2 0  9996
2 41168  14.9859 235.1517 0003788  66.3944 293.6781 15.59377532416048
GALASSIA                
1 41170U 15077E   23165.88849247  .00038038  00000+0  90868-3 0  9995
2 41170  14.9873 250.4877 0006623  16.8740 343.1804 15.39437404415703
VELOX-II                
1 41171U 15077F   23165.85493057  .00017641  00000+0  60737-3 0  9996
2 41171  14.9921 351.9927 0005722 153.4175 206.6442 15.27335818414848
CHUBUSAT-2              
1 41338U 16012B   23165.88523470  .00003231  00000+0  22189-3 0  9996
2 41338  31.0017 232.5277 0012351 155.4559 204.6667 15.03982384402030
CHUBUSAT-3              
1 41339U 16012C   23166.41073780  .00002845  00000+0  19536-3 0  9993
2 41339  31.0080 226.2776 0012303 168.1493 191.9435 15.03842804402101
HORYU-4                 
1 41340U 16012D   23166.40301618  .00005300  00000+0  33103-3 0  9993
2 41340  31.0023 194.8045 0011790 223.8410 136.1292 15.07874129402455
OUFTI-1                 
1 41458U 16025C   23165.79817820  .00034114  00000+0  89856-3 0  9996
2 41458  98.1830   9.3583 0100849  99.9195 261.3446 15.33342335392681
E-ST@R-II               
1 41459U 16025D   23166.38564864  .00028593  00000+0  82376-3 0  9994
2 41459  98.1861   7.5027 0108024 105.6261 255.6929 15.29988697392629
AAUSAT 4                
1 41460U 16025E   23166.39906936  .00103810  00000+0  13396-2 0  9998
2 41460  98.1597  20.1507 0057625  60.9904 299.7107 15.56620147393494
AIST-2D (RS-48)         
1 41465U 16026B   23166.35430318  .00021234  00000+0  28714-3 0  9996
2 41465  96.9983  37.6911 0005350 224.3896 135.6932 15.57736769399680
